{"type": "FeatureCollection", "features": [ {"type": "Feature", "properties": {"norad_id": 66777, "name": "TRANSPORTER-15 DR", "group": "last-30-days", "lat": -48.062309950257074, "lon": 76.88924827007732, "alt_km": 518.2501363626334, "timestamp": "2025-12-22T20:43:44.565695+00:00", "meta": {"OBJECT_NAME": "TRANSPORTER-15 DR", "OBJECT_ID": "2025-276DR", "EPOCH": "2025-12-22T11:27:22.537152", "MEAN_MOTION": 15.18905279, "ECCENTRICITY": 0.00034609, "INCLINATION": 97.4472, "RA_OF_ASC_NODE": 68.1369, "ARG_OF_PERICENTER": 113.3039, "MEAN_ANOMALY": 246.856, "EPHEMERIS_TYPE": 0, "CLASSIFICATION_TYPE": "U", "NORAD_CAT_ID": 66777, "ELEMENT_SET_NO": 999, "REV_AT_EPOCH": 360, "BSTAR": 0.00068739709, "MEAN_MOTION_DOT": 0.00014296, "MEAN_MOTION_DDOT": 0}, "tle": {"line1": "1 66777U 25276DR  25356.47734418  .00014296  00000+0  68740-3 0  9993", "line2": "2 66777  97.4472  68.1369 0003460 113.3039 246.8560 15.18905279  3601"}}, "geometry": {"type": "Point", "coordinates": [76.88924827007732, -48.062309950257074]}}, {"type": "Feature", "properties": {"norad_id": 66791, "name": "STARLINK-35867", "group": "last-30-days", "lat": 27.052333588325716, "lon": -22.208888764095065, "alt_km": 406.6881635490845, "timestamp": "2025-12-22T20:43:44.565707+00:00", "meta": {"OBJECT_NAME": "STARLINK-35867", "OBJECT_ID": "2025-278A", "EPOCH": "2025-12-22T14:00:01.999872", "MEAN_MOTION": 15.53189477, "ECCENTRICITY": 0.00016061, "INCLINATION": 42.9987, "RA_OF_ASC_NODE": 192.6699, "ARG_OF_PERICENTER": 253.4473, "MEAN_ANOMALY": 115.7272, "EPHEMERIS_TYPE": 0, "CLASSIFICATION_TYPE": "U", "NORAD_CAT_ID": 66791, "ELEMENT_SET_NO": 999, "REV_AT_EPOCH": 454, "BSTAR": -0.030099196, "MEAN_MOTION_DOT": -0.01730605, "MEAN_MOTION_DDOT": 0}, "tle": {"line1": "1 66791U 25278A   25356.58335648 -.01730605  00000+0 -30099-1 0  9991", "line2": "2 66791  42.9987 192.6699 0001606 253.4473 115.7272 15.53189477  4541"}}, "geometry": {"type": "Point", "coordinates": [-22.208888764095065, 27.052333588325716]}}, {"type": "Feature", "properties": {"norad_id": 66792, "name": "STARLINK-35990", "group": "last-30-days", "lat": 25.94586362415674, "lon": -20.457972787780772, "alt_km": 406.8471174381111, "timestamp": "2025-12-22T20:43:44.565719+00:00", "meta": {"OBJECT_NAME": "STARLINK-35990", "OBJECT_ID": "2025-278B", "EPOCH": "2025-12-22T14:00:01.999872", "MEAN_MOTION": 15.53189163, "ECCENTRICITY": 0.0001462, "INCLINATION": 42.9989, "RA_OF_ASC_NODE": 192.6653, "ARG_OF_PERICENTER": 256.3723, "MEAN_ANOMALY": 114.7211, "EPHEMERIS_TYPE": 0, "CLASSIFICATION_TYPE": "U", "NORAD_CAT_ID": 66792, "ELEMENT_SET_NO": 999, "REV_AT_EPOCH": 454, "BSTAR": -0.030133022, "MEAN_MOTION_DOT": -0.01732246, "MEAN_MOTION_DDOT": 0}, "tle": {"line1": "1 66792U 25278B   25356.58335648 -.01732246  00000+0 -30133-1 0  9994", "line2": "2 66792  42.9989 192.6653 0001462 256.3723 114.7211 15.53189163  4548"}}, "geometry": {"type": "Point", "coordinates": [-20.457972787780772, 25.94586362415674]}}, {"type": "Feature", "properties": {"norad_id": 66793, "name": "STARLINK-36051", "group": "last-30-days", "lat": 23.675431683398184, "lon": -17.05938040784229, "alt_km": 407.0231711049446, "timestamp": "2025-12-22T20:43:44.565729+00:00", "meta": {"OBJECT_NAME": "STARLINK-36051", "OBJECT_ID": "2025-278C", "EPOCH": "2025-12-22T14:00:01.999872", "MEAN_MOTION": 15.53190466, "ECCENTRICITY": 0.00014459, "INCLINATION": 42.9989, "RA_OF_ASC_NODE": 192.6556, "ARG_OF_PERICENTER": 250.2337, "MEAN_ANOMALY": 124.6931, "EPHEMERIS_TYPE": 0, "CLASSIFICATION_TYPE": "U", "NORAD_CAT_ID": 66793, "ELEMENT_SET_NO": 999, "REV_AT_EPOCH": 444, "BSTAR": -0.030144818, "MEAN_MOTION_DOT": -0.01732917, "MEAN_MOTION_DDOT": 0}, "tle": {"line1": "1 66793U 25278C   25356.58335648 -.01732917  00000+0 -30145-1 0  9993", "line2": "2 66793  42.9989 192.6556 0001445 250.2337 124.6931 15.53190466  4442"}}, "geometry": {"type": "Point", "coordinates": [-17.05938040784229, 23.675431683398184]}}, {"type": "Feature", "properties": {"norad_id": 66794, "name": "STARLINK-36062", "group": "last-30-days", "lat": 24.823615743149087, "lon": -18.748882432681285, "alt_km": 407.06230766959834, "timestamp": "2025-12-22T20:43:44.565739+00:00", "meta": {"OBJECT_NAME": "STARLINK-36062", "OBJECT_ID": "2025-278D", "EPOCH": "2025-12-22T14:00:01.999872", "MEAN_MOTION": 15.53177583, "ECCENTRICITY": 0.00018159, "INCLINATION": 42.9988, "RA_OF_ASC_NODE": 192.6597, "ARG_OF_PERICENTER": 254.2606, "MEAN_ANOMALY": 118.755, "EPHEMERIS_TYPE": 0, "CLASSIFICATION_TYPE": "U", "NORAD_CAT_ID": 66794, "ELEMENT_SET_NO": 999, "REV_AT_EPOCH": 454, "BSTAR": -0.029871552, "MEAN_MOTION_DOT": -0.01718354, "MEAN_MOTION_DDOT": 0}, "tle": {"line1": "1 66794U 25278D   25356.58335648 -.01718354  00000+0 -29872-1 0  9998", "line2": "2 66794  42.9988 192.6597 0001815 254.2606 118.7550 15.53177583  4548"}}, "geometry": {"type": "Point", "coordinates": [-18.748882432681285, 24.823615743149087]}}, {"type": "Feature", "properties": {"norad_id": 66795, "name": "STARLINK-36047", "group": "last-30-days", "lat": 22.513596939710727, "lon": -15.406438621100962, "alt_km": 407.2733773720611, "timestamp": "2025-12-22T20:43:44.565749+00:00", "meta": {"OBJECT_NAME": "STARLINK-36047", "OBJECT_ID": "2025-278E", "EPOCH": "2025-12-22T14:00:01.999872", "MEAN_MOTION": 15.53193402, "ECCENTRICITY": 0.00015218, "INCLINATION": 42.9989, "RA_OF_ASC_NODE": 192.651, "ARG_OF_PERICENTER": 254.5504, "MEAN_ANOMALY": 122.29, "EPHEMERIS_TYPE": 0, "CLASSIFICATION_TYPE": "U", "NORAD_CAT_ID": 66795, "ELEMENT_SET_NO": 999, "REV_AT_EPOCH": 444, "BSTAR": -0.03018864, "MEAN_MOTION_DOT": -0.01735371, "MEAN_MOTION_DDOT": 0}, "tle": {"line1": "1 66795U 25278E   25356.58335648 -.01735371  00000+0 -30189-1 0  9990", "line2": "2 66795  42.9989 192.6510 0001521 254.5504 122.2900 15.53193402  4445"}}, "geometry": {"type": "Point", "coordinates": [-15.406438621100962, 22.513596939710727]}}, {"type": "Feature", "properties": {"norad_id": 66796, "name": "STARLINK-35964", "group": "last-30-days", "lat": -36.73504837319228, "lon": 62.19291371946189, "alt_km": 326.45660738233164, "timestamp": "2025-12-22T20:43:44.565759+00:00", "meta": {"OBJECT_NAME": "STARLINK-35964", "OBJECT_ID": "2025-278F", "EPOCH": "2025-12-22T13:39:00.220320", "MEAN_MOTION": 15.81218924, "ECCENTRICITY": 0.00041499, "INCLINATION": 42.9909, "RA_OF_ASC_NODE": 190.7568, "ARG_OF_PERICENTER": 259.7477, "MEAN_ANOMALY": 100.2927, "EPHEMERIS_TYPE": 0, "CLASSIFICATION_TYPE": "U", "NORAD_CAT_ID": 66796, "ELEMENT_SET_NO": 999, "REV_AT_EPOCH": 340, "BSTAR": 0.00302793, "MEAN_MOTION_DOT": 0.0066341, "MEAN_MOTION_DDOT": 0}, "tle": {"line1": "1 66796U 25278F   25356.56875255  .00663410  00000+0  30279-2 0  9994", "line2": "2 66796  42.9909 190.7568 0004149 259.7477 100.2927 15.81218924  3403"}}, "geometry": {"type": "Point", "coordinates": [62.19291371946189, -36.73504837319228]}}, {"type": "Feature", "properties": {"norad_id": 66797, "name": "STARLINK-36099", "group": "last-30-days", "lat": 20.13905165848392, "lon": -12.180299364767825, "alt_km": 407.6388525146276, "timestamp": "2025-12-22T20:43:44.565770+00:00", "meta": {"OBJECT_NAME": "STARLINK-36099", "OBJECT_ID": "2025-278G", "EPOCH": "2025-12-22T14:00:01.999872", "MEAN_MOTION": 15.53191708, "ECCENTRICITY": 0.00015308, "INCLINATION": 42.9988, "RA_OF_ASC_NODE": 192.6412, "ARG_OF_PERICENTER": 257.3943, "MEAN_ANOMALY": 123.2806, "EPHEMERIS_TYPE": 0, "CLASSIFICATION_TYPE": "U", "NORAD_CAT_ID": 66797, "ELEMENT_SET_NO": 999, "REV_AT_EPOCH": 459, "BSTAR": -0.030126869, "MEAN_MOTION_DOT": -0.01732111, "MEAN_MOTION_DDOT": 0}, "tle": {"line1": "1 66797U 25278G   25356.58335648 -.01732111  00000+0 -30127-1 0  9993", "line2": "2 66797  42.9988 192.6412 0001530 257.3943 123.2806 15.53191708  4594"}}, "geometry": {"type": "Point", "coordinates": [-12.180299364767825, 20.13905165848392]}}, {"type": "Feature", "properties": {"norad_id": 66798, "name": "STARLINK-36041", "group": "last-30-days", "lat": 18.92875870713477, "lon": -10.603684726554254, "alt_km": 407.7692032955965, "timestamp": "2025-12-22T20:43:44.565782+00:00", "meta": {"OBJECT_NAME": "STARLINK-36041", "OBJECT_ID": "2025-278H", "EPOCH": "2025-12-22T14:00:01.999872", "MEAN_MOTION": 15.53190518, "ECCENTRICITY": 0.00015094, "INCLINATION": 42.9991, "RA_OF_ASC_NODE": 192.6359, "ARG_OF_PERICENTER": 256.147, "MEAN_ANOMALY": 126.4481, "EPHEMERIS_TYPE": 0, "CLASSIFICATION_TYPE": "U", "NORAD_CAT_ID": 66798, "ELEMENT_SET_NO": 999, "REV_AT_EPOCH": 438, "BSTAR": -0.030138057, "MEAN_MOTION_DOT": -0.01732606, "MEAN_MOTION_DDOT": 0}, "tle": {"line1": "1 66798U 25278H   25356.58335648 -.01732606  00000+0 -30138-1 0  9995", "line2": "2 66798  42.9991 192.6359 0001509 256.1470 126.4481 15.53190518  4386"}}, "geometry": {"type": "Point", "coordinates": [-10.603684726554254, 18.92875870713477]}}, {"type": "Feature", "properties": {"norad_id": 66799, "name": "STARLINK-36044", "group": "last-30-days", "lat": 17.707819261494794, "lon": -9.052510795335536, "alt_km": 407.8417260604392, "timestamp": "2025-12-22T20:43:44.565796+00:00", "meta": {"OBJECT_NAME": "STARLINK-36044", "OBJECT_ID": "2025-278J", "EPOCH": "2025-12-22T14:00:01.999872", "MEAN_MOTION": 15.53190529, "ECCENTRICITY": 0.00015166, "INCLINATION": 42.999, "RA_OF_ASC_NODE": 192.6316, "ARG_OF_PERICENTER": 252.428, "MEAN_ANOMALY": 132.0808, "EPHEMERIS_TYPE": 0, "CLASSIFICATION_TYPE": "U", "NORAD_CAT_ID": 66799, "ELEMENT_SET_NO": 999, "REV_AT_EPOCH": 454, "BSTAR": -0.030063081, "MEAN_MOTION_DOT": -0.01728762, "MEAN_MOTION_DDOT": 0}, "tle": {"line1": "1 66799U 25278J   25356.58335648 -.01728762  00000+0 -30063-1 0  9991", "line2": "2 66799  42.9990 192.6316 0001516 252.4280 132.0808 15.53190529  4541"}}, "geometry": {"type": "Point", "coordinates": [-9.052510795335536, 17.707819261494794]}}]}